{
    "CCSDS_OMM_VERS": "3.0",
    "COMMENT": "GENERATED VIA SPACE-TRACK.ORG API",
    "CREATION_DATE": "2025-11-23T23:06:32",
    "ORIGINATOR": "18 SPCS",
    "OBJECT_NAME": "GALILEO-FM2",
    "OBJECT_ID": "2011-060B",
    "CENTER_NAME": "EARTH",
    "REF_FRAME": "TEME",
    "TIME_SYSTEM": "UTC",
    "MEAN_ELEMENT_THEORY": "SGP4",
    "EPOCH": "2025-11-23T12:26:19.930272",
    "MEAN_MOTION": "1.70476021",
    "ECCENTRICITY": "0.00045200",
    "INCLINATION": "57.0579",
    "RA_OF_ASC_NODE": "347.3426",
    "ARG_OF_PERICENTER": "304.0394",
    "MEAN_ANOMALY": "85.8850",
    "EPHEMERIS_TYPE": "0",
    "CLASSIFICATION_TYPE": "U",
    "NORAD_CAT_ID": "37847",
    "ELEMENT_SET_NO": "999",
    "REV_AT_EPOCH": "8762",
    "BSTAR": "0.00000000000000",
    "MEAN_MOTION_DOT": "-0.00000065",
    "MEAN_MOTION_DDOT": "0.0000000000000",
    "SEMIMAJOR_AXIS": "29600.086",
    "PERIOD": "844.694",
    "APOAPSIS": "23235.330",
    "PERIAPSIS": "23208.572",
    "OBJECT_TYPE": "PAYLOAD",
    "RCS_SIZE": "LARGE",
    "COUNTRY_CODE": "ESA",
    "LAUNCH_DATE": "2011-10-21",
    "SITE": "FRGUI",
    "DECAY_DATE": null,
    "FILE": "4896339",
    "GP_ID": "303352081",
    "TLE_LINE0": "0 GALILEO-FM2",
    "TLE_LINE1": "1 37847U 11060B   25327.51828623 -.00000065  00000-0  00000+0 0  9992",
    "TLE_LINE2": "2 37847  57.0579 347.3426 0004520 304.0394  85.8850  1.70476021 87622"
}